NORAD_CAT_ID,OBJECT_NAME,OBJECT_TYPE,EPOCH,MEAN_MOTION,ECCENTRICITY,INCLINATION,RA_OF_ASC_NODE,ARG_OF_PERICENTER,MEAN_ANOMALY,BSTAR,MEAN_MOTION_DOT,MEAN_MOTION_DDOT,TLE_LINE0,TLE_LINE1,TLE_LINE2,SEMIMAJOR_AXIS,PERIOD,APOGEE,PERIGEE,DECAYED
52700.0,STARLINK-4034,PAYLOAD,2022-12-31 14:48:45,15.08851726,0.0002766,53.2186,334.8465,29.4046,330.7102,0.00030961,4.644e-05,0.0,0 STARLINK-4034,1 52700U 22053AW  22365.61719832  .00004644  00000-0  30961-3 0  9991,2 52700  53.2186 334.8465 0002766  29.4046 330.7102 15.08851726 34949,6917.845,95.437,541.623,537.7959999999998,0.0
52700.0,STARLINK-4034,PAYLOAD,2023-01-01 05:07:15,15.08834417,0.0002712,53.2193,332.1669,24.6394,335.4727,2.5748e-05,1.21e-06,0.0,0 STARLINK-4034,1 52700U 22053AW  23001.21337690  .00000121  00000-0  25748-4 0  9997,2 52700  53.2193 332.1669 0002712  24.6394 335.4727 15.08834417 35032,6917.897,95.438,541.639,537.886,0.0
52700.0,STARLINK-4034,PAYLOAD,2023-01-01 14:39:35,15.08821551,0.0002638999999999,53.2198,330.3851,26.3567,333.7559,-0.00012107,-2.214e-05,0.0,0 STARLINK-4034,1 52700U 22053AW  23001.61083128 -.00002214  00000-0 -12107-3 0  9996,2 52700  53.2198 330.3851 0002639  26.3567 333.7559 15.08821551 35094,6917.937,95.439,541.627,537.976,0.0
52700.0,STARLINK-4034,PAYLOAD,2023-01-01 22:36:30,15.0883489,0.0002623,53.2181,328.8965,29.4845,330.6294,-0.00015306,-2.723e-05,0.0,0 STARLINK-4034,1 52700U 22053AW  23001.94202466 -.00002723  00000-0 -15306-3 0  9999,2 52700  53.2181 328.8965 0002623  29.4845 330.6294 15.08834890 35148,6917.896,95.438,541.576,537.946,0.0
52700.0,STARLINK-4034,PAYLOAD,2023-01-02 06:33:25,15.08846871,0.0002569999999999,53.2187,327.4101,28.7903,331.3231,-0.0001474,-2.634e-05,0.0,0 STARLINK-4034,1 52700U 22053AW  23002.27321696 -.00002634  00000-0 -14740-3 0  9995,2 52700  53.2187 327.4101 0002570  28.7903 331.3231 15.08846871 35195,6917.859,95.437,541.502,537.946,0.0
52700.0,STARLINK-4034,PAYLOAD,2023-01-02 14:30:20,15.08858857,0.000272,53.2192,325.9240000000001,27.6058,332.5078,-0.00010216,-1.915e-05,0.0,0 STARLINK-4034,1 52700U 22053AW  23002.60440559 -.00001915  00000-0 -10216-3 0  9997,2 52700  53.2192 325.9240 0002720  27.6058 332.5078 15.08858857 35249,6917.823,95.436,541.569,537.806,0.0
52700.0,STARLINK-4034,PAYLOAD,2023-01-02 22:27:16,15.08848764,0.0002583,53.2186,324.4397,28.4327,331.6806,-4.343100000000001e-05,-9.8e-06,0.0,0 STARLINK-4034,1 52700U 22053AW  23002.93560879 -.00000980  00000-0 -43431-4 0  9998,2 52700  53.2186 324.4397 0002583  28.4327 331.6806 15.08848764 35294,6917.854,95.437,541.505,537.932,0.0
52700.0,STARLINK-4034,PAYLOAD,2023-01-03 06:24:13,15.08822778,0.0002581,53.2189,322.9533,29.6617,330.4521,0.00011317,1.512e-05,0.0,0 STARLINK-4034,1 52700U 22053AW  23003.26682429  .00001512  00000-0  11317-3 0  9998,2 52700  53.2189 322.9533 0002581  29.6617 330.4521 15.08822778 35349,6917.933000000001,95.439,541.5840000000002,538.013,0.0
52700.0,STARLINK-4034,PAYLOAD,2023-01-03 14:21:09,15.08829312,0.0002686,53.22,321.4651,27.5664,332.547,0.00015383,2.1600000000000007e-05,0.0,0 STARLINK-4034,1 52700U 22053AW  23003.59802151  .00002160  00000-0  15383-3 0  9997,2 52700  53.2200 321.4651 0002686  27.5664 332.5470 15.08829312 35395,6917.913000000001,95.438,541.636,537.92,0.0
52700.0,STARLINK-4034,PAYLOAD,2023-01-04 14:11:55,15.0885301,0.0002925,53.2201,317.0043,28.8373,331.2781,0.00018575,2.67e-05,0.0,0 STARLINK-4034,1 52700U 22053AW  23004.59160907  .00002670  00000-0  18575-3 0  9996,2 52700  53.2201 317.0043 0002925  28.8373 331.2781 15.08853010 35549,6917.840999999999,95.437,541.729,537.682,0.0
52700.0,STARLINK-4034,PAYLOAD,2023-01-05 06:05:46,15.08850378,0.0002602,53.2194,314.0316,29.542,330.5719,0.00022036,3.221e-05,0.0,0 STARLINK-4034,1 52700U 22053AW  23005.25400547  .00003221  00000-0  22036-3 0  9997,2 52700  53.2194 314.0316 0002602  29.5420 330.5719 15.08850378 36057,6917.849,95.437,541.514,537.914,0.0
52700.0,STARLINK-4034,PAYLOAD,2023-01-05 14:02:41,15.08859038,0.0002666,53.2194,312.5451,29.2302,330.8839,0.00019306,2.787e-05,0.0,0 STARLINK-4034,1 52700U 22053AW  23005.58519758  .00002787  00000-0  19306-3 0  9990,2 52700  53.2194 312.5451 0002666  29.2302 330.8839 15.08859038 36100,6917.821999999999,95.436,541.531,537.8430000000002,0.0
52700.0,STARLINK-4034,PAYLOAD,2023-01-06 05:56:33,15.08843701,0.0002476,53.2208,309.5715,16.5658,343.5414,-6.6383e-05,-1.345e-05,0.0,0 STARLINK-4034,1 52700U 22053AW  23006.24761094 -.00001345  00000-0 -66383-4 0  9995,2 52700  53.2208 309.5715 0002476  16.5658 343.5414 15.08843701 35791,6917.8690000000015,95.437,541.447,538.021,0.0
52700.0,STARLINK-4034,PAYLOAD,2023-01-07 02:36:35,15.08832255,0.000265,53.2186,305.7065,23.2345,336.8767,-0.00012359,-2.255e-05,0.0,0 STARLINK-4034,1 52700U 22053AW  23007.10873970 -.00002255  00000-0 -12359-3 0  9992,2 52700  53.2186 305.7065 0002650  23.2345 336.8767 15.08832255 35927,6917.904,95.438,541.602,537.936,0.0
52700.0,STARLINK-4034,PAYLOAD,2023-01-07 05:47:20,15.08843405,0.0002645,53.219,305.1114,31.1774,328.9374,-1.9652e-05,-6.01e-06,0.0,0 STARLINK-4034,1 52700U 22053AW  23007.24121107 -.00000601  00000-0 -19652-4 0  9992,2 52700  53.2190 305.1114 0002645  31.1774 328.9374 15.08843405 35946,6917.87,95.437,541.565,537.905,0.0
52700.0,STARLINK-4034,PAYLOAD,2023-01-07 20:05:49,15.08823871,0.0002508,53.2174,302.4356,30.1716,329.94199999999995,-2.3387e-05,-6.6e-06,0.0,0 STARLINK-4034,1 52700U 22053AW  23007.83737981 -.00000660  00000-0 -23387-4 0  9995,2 52700  53.2174 302.4356 0002508  30.1716 329.9420 15.08823871 36038,6917.93,95.439,541.53,538.06,0.0
52700.0,STARLINK-4034,PAYLOAD,2023-01-08 11:59:42,15.08822252,0.0002806,53.2197,299.4605,37.0007,323.1178,9.3502e-06,-1.4e-06,0.0,0 STARLINK-4034,1 52700U 22053AW  23008.49979262 -.00000140  00000-0  93502-5 0  9997,2 52700  53.2197 299.4605 0002806  37.0007 323.1178 15.08822252 36549,6917.935,95.439,541.741,537.8580000000002,0.0
52700.0,STARLINK-4034,PAYLOAD,2023-01-08 19:56:38,15.08825555,0.0002934,53.221,297.9733,38.8233,321.297,-3.5226e-05,-8.49e-06,0.0,0 STARLINK-4034,1 52700U 22053AW  23008.83099848 -.00000849  00000-0 -35226-4 0  9993,2 52700  53.2210 297.9733 0002934  38.8233 321.2970 15.08825555 36595,6917.925,95.438,541.819,537.76,0.0
52700.0,STARLINK-4034,PAYLOAD,2023-01-09 05:28:55,15.08850891,0.0002592,53.2194,296.1906,28.6964,331.417,0.00016663,2.365e-05,0.0,0 STARLINK-4034,1 52700U 22053AW  23009.22841484  .00002365  00000-0  16663-3 0  9994,2 52700  53.2194 296.1906 0002592  28.6964 331.4170 15.08850891 36245,6917.847,95.437,541.505,537.919,0.0
52700.0,STARLINK-4034,PAYLOAD,2023-01-09 11:50:27,15.08848003,0.0002682,53.2187,295.0012,28.4313,331.6825,0.00017841,2.553e-05,0.0,0 STARLINK-4034,1 52700U 22053AW  23009.49337861  .00002553  00000-0  17841-3 0  9990,2 52700  53.2187 295.0012 0002682  28.4313 331.6825 15.08848003 36699,6917.856,95.437,541.576,537.866,0.0
52700.0,STARLINK-4034,PAYLOAD,2023-01-10 03:44:19,15.08836177,0.0002677,53.2193,292.0272,26.9227,333.1903,0.00023035,3.379e-05,0.0,0 STARLINK-4034,1 52700U 22053AW  23010.15578643  .00003379  00000-0  23035-3 0  9999,2 52700  53.2193 292.0272 0002677  26.9227 333.1903 15.08836177 36381,6917.892,95.438,541.609,537.905,0.0
52700.0,STARLINK-4034,PAYLOAD,2023-01-10 11:41:16,15.08825748,0.0002788,53.2191,290.5408,27.6233,332.4907,0.0002238,3.274e-05,0.0,0 STARLINK-4034,1 52700U 22053AW  23010.48699282  .00003274  00000-0  22380-3 0  9994,2 52700  53.2191 290.5408 0002788  27.6233 332.4907 15.08825748 36435,6917.924,95.438,541.7180000000002,537.86,0.0
52700.0,STARLINK-4034,PAYLOAD,2023-01-11 01:59:43,15.08849291,0.0002712,53.2184,287.8642,30.3211,329.7937,0.00011551,1.551e-05,0.0,0 STARLINK-4034,1 52700U 22053AW  23011.08313945  .00001551  00000-0  11551-3 0  9994,2 52700  53.2184 287.8642 0002712  30.3211 329.7937 15.08849291 36521,6917.852,95.437,541.5930000000002,537.841,0.0
52700.0,STARLINK-4034,PAYLOAD,2023-01-11 11:32:01,15.0886158,0.0002727,53.2188,286.0807,32.0099,328.1058,0.00029869,4.471e-05,0.0,0 STARLINK-4034,1 52700U 22053AW  23011.48057134  .00004471  00000-0  29869-3 0  9998,2 52700  53.2188 286.0807 0002727  32.0099 328.1058 15.08861580 36586,6917.814,95.436,541.566,537.793,0.0
52700.0,STARLINK-4034,PAYLOAD,2023-01-11 17:53:34,15.0885345,0.0002784,53.2179,284.8929,32.3178,327.7984,0.00019389,2.8000000000000006e-05,0.0,0 STARLINK-4034,1 52700U 22053AW  23011.74553344  .00002800  00000-0  19389-3 0  9991,2 52700  53.2179 284.8929 0002784  32.3178 327.7984 15.08853450 36626,6917.839,95.437,541.63,537.778,0.0
52700.0,STARLINK-4034,PAYLOAD,2023-01-12 17:44:23,15.08797565,0.0002386,53.2189,280.4315,33.5071,326.6071,-0.00055116,-9.039e-05,0.0,0 STARLINK-4034,1 52700U 22053AW  23012.73916431 -.00009039  00000-0 -55116-3 0  9992,2 52700  53.2189 280.4315 0002386  33.5071 326.6071 15.08797565 36776,6918.01,95.44,541.526,538.224,0.0
52700.0,STARLINK-4034,PAYLOAD,2023-01-12 22:30:32,15.08800903,0.0002293,53.217,279.5408,32.2672,327.846,-0.00061911,-0.00010118,0.0,0 STARLINK-4034,1 52700U 22053AW  23012.93788020 -.00010118  00000-0 -61911-3 0  9995,2 52700  53.2170 279.5408 0002293  32.2672 327.8460 15.08800903 37214,6918.0,95.44,541.451,538.279,0.0
52700.0,STARLINK-4034,PAYLOAD,2023-01-13 00:05:56,15.08799615,0.0002297,53.218,279.2426,30.935,329.1777,-0.00060698,-9.925e-05,0.0,0 STARLINK-4034,1 52700U 22053AW  23013.00412248 -.00009925  00000-0 -60698-3 0  9995,2 52700  53.2180 279.2426 0002297  30.9350 329.1777 15.08799615 36812,6918.004,95.44,541.4580000000002,538.28,0.0
52700.0,STARLINK-4034,PAYLOAD,2023-01-13 12:49:01,15.08817797,0.0002431,53.2171,276.8638,35.7421,324.3734,0.0001621,2.291e-05,0.0,0 STARLINK-4034,1 52700U 22053AW  23013.53404712  .00002291  00000-0  16210-3 0  9998,2 52700  53.2171 276.8638 0002431  35.7421 324.3734 15.08817797 36892,6917.948,95.439,541.495,538.132,0.0
